    CK20K080  2020 09 14.5178  0.474614  1.000273  260.0563  181.5195   31.4129  20201010  15.0  3.2  C/2020 K8 (Catalina-ATLAS)                               MPEC 2020-N31
    PK20K090  2021 02 11.6994  2.849567  0.321910  196.8493  166.2398   23.2057  20201010  12.5  4.0  P/2020 K9 (Lemmon-PANSTARRS)                             MPEC 2020-SI8
    CK20M050  2021 08 19.8959  3.004517  0.999585  126.3368  352.0979   93.2224  20201010   9.0  4.0  C/2020 M5 (ATLAS)                                        MPEC 2020-SI8
    PK20M010  2019 12 21.3678  2.661234  0.477594   67.9247  142.9375    8.6346  20201010  14.5  4.0  P/2020 M1 (PANSTARRS)                                    MPEC 2020-N31
    CK20M030  2020 10 25.6231  1.268220  0.952649  328.4472   71.2484   23.4728  20201010  14.5  4.0  C/2020 M3 (ATLAS)                                        MPEC 2020-SI8
    CK20N010  2021 03 12.2339  1.320689  1.000414  186.7742  279.9820   29.7037  20201010  12.5  4.0  C/2020 N1 (PANSTARRS)                                    MPEC 2020-SI8
    PK20O010  2020 05  3.4858  2.329115  0.119728  104.7541  175.9798    5.2244  20201010  15.5  4.0  P/2020 O1 (Lemmon-PANSTARRS)                             MPEC 2020-SI8
    PK20O030  2021 01 28.8149  4.166757  0.105870   81.3428  266.8841    8.4417  20201010  12.0  4.0  P/2020 O3 (PANSTARRS)                                    MPEC 2020-SI8
    CK20P010  2020 10 20.1770  0.342054  1.000626    8.8872   53.5466   45.0690  20201010  14.0  3.2  C/2020 P1 (NEOWISE)                                      MPEC 2020-SI8
    CK20P030  2021 04 23.4508  6.807991  0.998334   82.4456   19.5060   61.8911  20201010   6.0  4.0  C/2020 P3 (ATLAS)                                        MPEC 2020-R04
    CK20P04a  2020 08  8.2176  0.090759  1.002091  177.4766  175.2068   26.3310  20201010   5.3  6.0  C/2020 P4-A (SOHO)                                       MPEC 2020-QN1
    CK20P04b  2020 08  8.1268  0.098304  1.000485  173.4037  171.4995   27.3012  20201010   0.0  6.0  C/2020 P4-B (SOHO)                                       MPEC 2020-QN1
    CK20P04c  2020 08  6.8017  0.086546  1.012860  116.7332  164.0415   37.4581  20201010  -1.6  6.0  C/2020 P4-C (SOHO)                                       MPEC 2020-QN1
    CK20Q010  2020 08 15.2001  1.318036  0.995245   10.3890   52.4980  142.9315  20201010  14.0  4.0  C/2020 Q1 (Borisov)                                      MPEC 2020-R04
    CK20Q020  2020 02  8.2442  5.403510  0.503687  118.6972  179.9012    3.3136  20201010  12.0  3.2  C/2020 Q2 (PANSTARRS)                                    MPEC 2020-R04
    PK20P020  2020 12 26.7278  1.305913  0.582706  320.2075  127.4721   11.0163  20201010  15.0  4.0  P/2020 P2 (Boattini)                                     MPEC 2020-SI8
    CK20P030  2021 04 21.1947  6.812532  0.999659   82.2658   19.5079   61.8910  20201010   6.0  4.0  C/2020 P3 (ATLAS)                                        MPEC 2020-SI8
    CK20Q010  2020 08 14.5693  1.314461  0.975034    9.8029   52.3597  142.9239  20201010  14.0  4.0  C/2020 Q1 (Borisov)                                      MPEC 2020-SI8
    CK20Q020  2020 02  6.5586  5.400567  0.504617  118.4984  179.9237    3.3121  20201010  12.0  3.2  C/2020 Q2 (PANSTARRS)                                    MPEC 2020-SI8
    CK20R020  2022 02 24.2483  4.690869  0.989494  211.7296  195.0832   53.2378  20201010   9.0  4.0  C/2020 R2 (PANSTARRS)                                    MPEC 2020-SI8
    CK20R040  2021 03  1.9317  1.028734  0.989538   46.7032  323.2729  164.4628  20201010  13.5  4.0  C/2020 R4 (ATLAS)                                        MPEC 2020-SI8
    PK20P020  2020 12 26.7296  1.305899  0.582738  320.2113  127.4703   11.0165  20201217  15.0  4.0  P/2020 P2 (Boattini)                                     MPEC 2020-SI8
    CK20P030  2021 04 21.1724  6.812547  0.999753   82.2658   19.5046   61.8899  20201217   6.0  4.0  C/2020 P3 (ATLAS)                                        MPEC 2020-SI8
    CK20Q010  2020 08 14.5729  1.314496  0.975072    9.8083   52.3625  142.9242  20201217  14.0  4.0  C/2020 Q1 (Borisov)                                      MPEC 2020-SI8
    CK20Q020  2020 02  6.2806  5.400691  0.503323  118.5202  179.8875    3.3151  20201217  12.0  3.2  C/2020 Q2 (PANSTARRS)                                    MPEC 2020-SI8
    CK20R020  2022 02 24.2523  4.690621  0.989605  211.7338  195.0833   53.2376  20201217   9.0  4.0  C/2020 R2 (PANSTARRS)                                    MPEC 2020-SI8
    CK20R040  2021 03  1.9281  1.028765  0.989589   46.6993  323.2723  164.4630  20201217  13.5  4.0  C/2020 R4 (ATLAS)                                        MPEC 2020-SI8
    PK20R050  2020 05 28.2284  3.413126  0.314491   82.3257  272.9701   11.4544  20201010   9.5  6.0  P/2020 R5 (PANSTARRS)                                    MPEC 2020-SI8
    CK20R060  2019 09 15.2626  2.943126  1.024206  268.6519   12.6197   81.2823  20201010  11.0  4.0  C/2020 R6 (Rankin)                                       MPEC 2020-SI8
    CK20R070  2022 09  4.8036  2.960000  1.027762  346.9803  268.4771  114.9512  20201010   9.0  4.0  C/2020 R7 (ATLAS)                                        MPEC 2020-SI8
    PK20S010  2021 01 16.9785  2.947194  0.507251  254.8882  129.4598   13.7343  20201010  14.0  4.0  P/2020 S1 (PANSTARRS)                                    MPEC 2020-SI8
    CK20S020  2020 12 21.9091  1.756096  0.826966  202.2420  197.6914   22.3905  20201010  17.0  4.0  C/2020 S2 (PANSTARRS)                                    MPEC 2020-SI8
    CK20S030  2020 12 13.2285  0.422747  1.015550  347.4901  223.2376   19.8386  20201010  13.5  3.2  C/2020 S3 (Erasmus)                                      MPEC 2020-SI8
    CK20S040  2023 02  8.6011  3.366752  1.000000   21.1875  117.5524   20.5853             8.5  3.2  C/2020 S4 (PANSTARRS)                                    MPEC 2020-SN9
    PK20S050  2020 08  8.4352  2.679265  0.338344   53.0198  316.0159   12.3568  20201010  14.5  4.0  P/2020 S5 (PANSTARRS)                                    MPEC 2020-SO0
0001P         1986 01 24.3298  0.604670  0.966166  111.3358   58.3974  162.2911  20201010   4.0  6.0  1P/Halley                                                 98, 1083
0002P         2020 06 25.8485  0.336717  0.848022  186.5675  334.5486   11.7657  20201010  11.5  6.0  2P/Encke                                                 MPEC 2020-SI8
0004P         2021 09  9.2972  1.617712  0.577449  206.8912  193.0603    8.0080  20201010   8.0  6.0  4P/Faye                                                  MPEC 2015-A10
0006P         2021 09 17.7823  1.354898  0.612617  178.0980  138.9345   19.5122  20201010   7.5 16.0  6P/d'Arrest                                              MPC 95735
0007P         2021 05 27.0989  1.234351  0.638510  172.5812   93.3779   22.3637  20201010  10.0  6.0  7P/Pons-Winnecke                                         MPEC 2015-E14
0008P         2021 08 27.7627  1.026125  0.820112  207.4902  270.2050   54.9117  20201010   8.0  8.0  8P/Tuttle                                                MPEC 2020-SI8
0009P         2022 03  4.8536  1.543991  0.509419  179.3204   68.7307   10.4711  20201010   5.5 10.0  9P/Tempel                                                MPC114607
0010P         2021 03 24.2975  1.412426  0.538527  195.5189  117.8096   12.0398  20201010   5.0 10.0  10P/Tempel                                               MPEC 2019-JE2
0011P         2020 11 26.2592  1.388762  0.576954  167.9446  238.9166   14.4210  20201010  17.0  4.0  11P/Tempel-Swift-LINEAR                                  MPEC 2020-SI8
0012P         2024 04 21.0285  0.781357  0.954308  199.0324  255.7247   74.0890  20201010   5.0  6.0  12P/Pons-Brooks                                           27,  604
0013P         2024 07  1.4576  1.172645  0.929711   64.5253   85.8639   44.6260  20201010   5.0  6.0  13P/Olbers                                                27,  604
0014P         2017 12  2.2431  2.739827  0.356710  158.9861  202.0724   27.9046  20201010   5.5 12.0  14P/Wolf                                                 MPC100283
0015P         2021 07 13.5593  0.991789  0.716995  347.8350   13.7219    6.7976  20201010  12.0  4.0  15P/Finlay                                               MPC 92276
0017P         2021 02 19.8392  2.080586  0.428132   24.4772  326.6210   19.0298  20201010  10.0  6.0  17P/Holmes                                               MPEC 2020-SI8
0018D         2017 02 26.0742  1.643324  0.584005  156.9370  237.9362   16.8807  20201010  11.5  8.0  18D/Perrine-Mrkos                                        NK    573
0019P         2022 02  1.6332  1.304730  0.638213  351.8266   74.3750   29.3653  20201010   4.5 10.0  19P/Borrelly                                             MPC 92984
0020D         2038 05  4.4886  1.263560  0.919808   56.5145  348.3414   40.9150  20201010  13.0  8.0  20D/Westphal                                              27,  604
0021P         2018 09 10.4413  1.011296  0.710723  172.8486  195.3604   32.0180  20201010   9.0  6.0  21P/Giacobini-Zinner                                     MPC111773
0022P         2022 03 18.0200  1.552989  0.548890  162.9698  120.8372    4.7420  20201010   3.0 10.4  22P/Kopff                                                MPC 94283
0023P         1989 08 10.2226  0.490256  0.971083  128.8161  312.4192   19.1332  20201010  10.0  6.0  23P/Brorsen-Metcalf                                      MPC 14747
0024P         2017 11 16.9611  1.180742  0.708874   57.8452   79.1781   11.6331  20201010   6.5 14.0  24P/Schaumasse                                           MPC110085
0025D         2019 08 18.7440  1.290587  0.583121  215.3509  307.5252    5.3239  20201010  12.5  6.0  25D/Neujmin 2                                             10,  252
0026P         2018 10  1.5683  1.083338  0.640564    2.1924  211.5398   22.4415  20201010  12.0 16.0  26P/Grigg-Skjellerup                                     MPC 94674
